*******************************************************************************
 Revised: Mar 12, 2021             Io  / (Jupiter)                          501

 SATELLITE PHYSICAL PROPERTIES:
  Mean radius (km)       = 1821.6   +- 0.5   Density (g cm^-3) = 3.528 +- 0.006
  GM (km^3/s^2)          = 5959.9155+- 0.004 Geometric Albedo  = 0.63  +- 0.02

 SATELLITE ORBIT (at J2000.0 epoch, 2000-Jan-1.5):
  Semi-major axis, a (km)~ 422,000           Orbital period    ~ 1.77 d
  Eccentricity, e        ~ 0.00472           Rotational period = Synchronous
  Inclination, i  (deg)  ~ 0.0375
*******************************************************************************
 
 
*******************************************************************************
Ephemeris / WWW_USER Thu Apr  8 14:43:00 2021 Pasadena, USA      / Horizons
*******************************************************************************
Target body name: Io (501)                        {source: jup365_merged}
Center body name: Jupiter (599)                   {source: jup365_merged}
Center-site name: BODY CENTER
*******************************************************************************
Start time      : A.D. 1986-Apr-24 12:00:00.0000 TDB
Stop  time      : A.D. 2013-Sep-09 12:00:00.0000 TDB
Step-size       : 144000 minutes
*******************************************************************************
Center geodetic : 0.00000000,0.00000000,0.0000000 {W-lon(deg),Lat(deg),Alt(km)}
Center cylindric: 0.00000000,0.00000000,0.0000000 {W-lon(deg),Dxy(km),Dz(km)}
Center radii    : 71492.0 x 71492.0 x 66854.0 km  {Equator, meridian, pole}    
Output units    : AU-D
Output type     : GEOMETRIC cartesian states
Output format   : 2 (position and velocity)
Reference frame : ICRF
*******************************************************************************
JDTDB
   X     Y     Z
   VX    VY    VZ
*******************************************************************************
$$SOE
2453945.000000000 = A.D. 2006-Jul-28 12:00:00.0000 TDB 
 X =-1.747983535037451E-03 Y =-1.997527175721389E-03 Z =-9.819825234010887E-04
 VX= 7.834507451739145E-03 VY=-5.621089216172727E-03 VZ=-2.552328536135413E-03
2454045.000000000 = A.D. 2006-Nov-05 12:00:00.0000 TDB 
 X = 1.362904382142140E-03 Y = 2.213164989839013E-03 Z = 1.078243954110521E-03
 VX=-8.757567414192355E-03 VY= 4.472106523484022E-03 VZ= 1.987458180725394E-03
2454145.000000000 = A.D. 2007-Feb-13 12:00:00.0000 TDB 
 X =-9.969491311193964E-04 Y =-2.364743237005089E-03 Z =-1.144077676208082E-03
 VX= 9.400866141231329E-03 VY=-3.258260076730097E-03 VZ=-1.397174644893236E-03
2454245.000000000 = A.D. 2007-May-24 12:00:00.0000 TDB 
 X = 5.869092091099299E-04 Y = 2.492771639503449E-03 Z = 1.197921490825519E-03
 VX=-9.772397203157071E-03 VY= 1.907521129826874E-03 VZ= 7.466391663001553E-04
2454345.000000000 = A.D. 2007-Sep-01 12:00:00.0000 TDB 
 X =-1.168856607430281E-04 Y =-2.549039247743642E-03 Z =-1.216467711565317E-03
 VX= 9.975236874226629E-03 VY=-4.652775651523557E-04 VZ=-5.623916248026535E-05
2454445.000000000 = A.D. 2007-Dec-10 12:00:00.0000 TDB 
 X =-3.153611219584837E-04 Y = 2.522636005694060E-03 Z = 1.196430642815976E-03
 VX=-9.985253317601419E-03 VY=-9.333217966858437E-04 VZ=-6.093436084254628E-04
2454545.000000000 = A.D. 2008-Mar-19 12:00:00.0000 TDB 
 X = 7.121385518189434E-04 Y =-2.462535651087386E-03 Z =-1.161011059365361E-03
 VX= 9.694343044040907E-03 VY= 2.263277557569731E-03 VZ= 1.236859687218414E-03
2454645.000000000 = A.D. 2008-Jun-27 12:00:00.0000 TDB 
 X =-1.142875022435428E-03 Y = 2.345117152698673E-03 Z = 1.097993284298189E-03
 VX=-9.117815789635993E-03 VY=-3.589898942720802E-03 VZ=-1.857489968434619E-03
2454745.000000000 = A.D. 2008-Oct-05 12:00:00.0000 TDB 
 X = 1.549298394333647E-03 Y =-2.138987461638833E-03 Z =-9.933712663102254E-04
 VX= 8.382342475552862E-03 VY= 4.877075066112093E-03 VZ= 2.457073196258631E-03
2454845.000000000 = A.D. 2009-Jan-13 12:00:00.0000 TDB 
 X =-1.871102353468596E-03 Y = 1.901580257363467E-03 Z = 8.754070552136438E-04
 VX=-7.497284399409021E-03 VY=-6.001581418899196E-03 VZ=-2.976805876125461E-03
2454945.000000000 = A.D. 2009-Apr-23 12:00:00.0000 TDB 
 X = 2.166200130803824E-03 Y =-1.643000089512976E-03 Z =-7.480280653271701E-04
 VX= 6.375899339011873E-03 VY= 6.929211815257158E-03 VZ= 3.399816849249652E-03
2455045.000000000 = A.D. 2009-Aug-01 12:00:00.0000 TDB 
 X =-2.442311812892650E-03 Y = 1.306892027836247E-03 Z = 5.840491322410629E-04
 VX=-5.046040028491202E-03 VY=-7.734586479205409E-03 VZ=-3.762046792161403E-03
2455145.000000000 = A.D. 2009-Nov-09 12:00:00.0000 TDB 
 X = 2.626790017843359E-03 Y =-9.312558943723404E-04 Z =-4.027779990750676E-04
 VX= 3.646853704736605E-03 VY= 8.408707234996435E-03 VZ= 4.061491515638714E-03
2455245.000000000 = A.D. 2010-Feb-17 12:00:00.0000 TDB 
 X =-2.737932704034442E-03 Y = 5.811882964442803E-04 Z = 2.346706021341102E-04
 VX=-2.221722678688397E-03 VY=-8.835811552445843E-03 VZ=-4.243907645137558E-03
2455345.000000000 = A.D. 2010-May-28 12:00:00.0000 TDB 
 X = 2.817523223586773E-03 Y =-2.021858225034618E-04 Z =-5.313545435064649E-05
 VX= 6.910582556798199E-04 VY= 8.994177395737008E-03 VZ= 4.297010546066671E-03
2455445.000000000 = A.D. 2010-Sep-05 12:00:00.0000 TDB 
 X =-2.815572007598973E-03 Y =-2.251718465749625E-04 Z =-1.504148573117453E-04
 VX= 9.202786668585800E-04 VY=-8.975735058486697E-03 VZ=-4.265297592749300E-03
2455545.000000000 = A.D. 2010-Dec-14 12:00:00.0000 TDB 
 X = 2.722884268960029E-03 Y = 6.133734441765181E-04 Z = 3.342035763187142E-04
 VX=-2.462612969824124E-03 VY= 8.802172365103677E-03 VZ= 4.160485103704020E-03
2455645.000000000 = A.D. 2011-Mar-24 12:00:00.0000 TDB 
 X =-2.597448010156062E-03 Y =-9.569268717760686E-04 Z =-4.963641165828674E-04
 VX= 3.876270753379232E-03 VY=-8.379956567894586E-03 VZ=-3.938960435370916E-03
2455745.000000000 = A.D. 2011-Jul-02 12:00:00.0000 TDB 
 X = 2.410384159588491E-03 Y = 1.322385801178680E-03 Z = 6.683064717083608E-04
 VX=-5.240365034037456E-03 VY= 7.693350196811208E-03 VZ= 3.591423341743790E-03
2455845.000000000 = A.D. 2011-Oct-10 12:00:00.0000 TDB 
 X =-2.126458985077329E-03 Y =-1.663952781816978E-03 Z =-8.273978325176549E-04
 VX= 6.548175142307077E-03 VY=-6.854905127919617E-03 VZ=-3.171388252590673E-03
2455945.000000000 = A.D. 2012-Jan-18 12:00:00.0000 TDB 
 X = 1.813825825494714E-03 Y = 1.923233558311205E-03 Z = 9.468485185951418E-04
 VX=-7.665387170312087E-03 VY= 5.915097907956420E-03 VZ= 2.705204525873126E-03
2456045.000000000 = A.D. 2012-Apr-27 12:00:00.0000 TDB 
 X =-1.491581822486184E-03 Y =-2.147733836177850E-03 Z =-1.049442962097968E-03
 VX= 8.520738090449280E-03 VY=-4.806985092647426E-03 VZ=-2.161604885065085E-03
2456145.000000000 = A.D. 2012-Aug-05 12:00:00.0000 TDB 
 X = 1.089147287991754E-03 Y = 2.351073006214626E-03 Z = 1.140508374777382E-03
 VX=-9.203353633717852E-03 VY= 3.518118483229216E-03 VZ= 1.533976256859680E-03
2456245.000000000 = A.D. 2012-Nov-13 12:00:00.0000 TDB 
 X =-6.456606663778894E-04 Y =-2.471236350388879E-03 Z =-1.191005512805164E-03
 VX= 9.739898284275973E-03 VY=-2.168014912255099E-03 VZ=-8.786801071519032E-04
2456345.000000000 = A.D. 2013-Feb-21 12:00:00.0000 TDB 
 X = 2.394303124682406E-04 Y = 2.523041177984632E-03 Z = 1.209131407116951E-03
 VX=-1.001644138876818E-02 VY= 8.291654369719338E-04 VZ= 2.329569197378046E-04
2456445.000000000 = A.D. 2013-Jun-01 12:00:00.0000 TDB 
 X = 1.797838557761202E-04 Y =-2.543470034881590E-03 Z =-1.211898746126638E-03
 VX= 9.975343050554230E-03 VY= 5.463892592241357E-04 VZ= 4.249899117690150E-04
2456545.000000000 = A.D. 2013-Sep-09 12:00:00.0000 TDB 
 X =-6.460781907147252E-04 Y = 2.490349649668459E-03 Z = 1.178471684912160E-03
 VX=-9.715280384060051E-03 VY=-1.976184532597620E-03 VZ=-1.104825466039010E-03
